ONEWEB-0414             
1 50491U 21132Y   25335.13275091  .00000071  00000+0  14754-3 0  9995
2 50491  87.9196  14.7704 0001899 103.2630 256.8714 13.18685555195528
ONEWEB-0417             
1 50492U 21132Z   25335.36862860  .00000076  00000+0  16027-3 0  9997
2 50492  87.9197  14.7573 0001598  99.7852 260.3460 13.18685249195534
ONEWEB-0418             
1 50493U 21132AA  25335.15074421  .00000108  00000+0  24150-3 0  9995
2 50493  87.9194  14.7851 0001323 104.1969 255.9310 13.18684028195568
ONEWEB-0419             
1 50494U 21132AB  25335.47254684  .00000072  00000+0  14899-3 0  9991
2 50494  87.9192  14.7213 0001483  91.9062 268.2240 13.18684642195520
ONEWEB-0420             
1 50495U 21132AC  25335.13438891  .00000057  00000+0  11194-3 0  9997
2 50495  87.9197  14.8002 0001960  95.4241 264.7115 13.18689336195472
ONEWEB-0421             
1 50496U 21132AD  25335.35542225  .00000111  00000+0  24891-3 0  9998
2 50496  87.9195  14.7493 0001974 104.9852 255.1498 13.18684976195544
ONEWEB-0424             
1 50497U 21132AE  25335.39173103 -.00000960  00000+0 -24676-2 0  9992
2 50497  87.9195  14.7378 0001435  85.2958 274.8338 13.18675816195574
ONEWEB-0426             
1 50498U 21132AF  25335.50388211  .00000094  00000+0  20520-3 0  9995
2 50498  87.9195  14.7066 0001816 119.2944 240.8370 13.18685986195539
